start=new Date('2021-11-05T00:00:00.000Z').valueOf();
sats=[{"INCLINATION":"53.0275","PERIOD":"95.592","COUNTRY_CODE":"US","MEAN_MOTION_DOT":"0.00003433","MEAN_ANOMALY":"278.0436","NORAD_CAT_ID":"47778","LAUNCH_DATE":"2021-03-04","MEAN_MOTION":"15.06402921","APOAPSIS":"548.619","MEAN_MOTION_DDOT":"0.0000000000000","OBJECT_NAME":"STARLINK-2211","ELEMENT_SET_NO":"999","RCS_SIZE":"LARGE","EPOCH":"2021-11-04T19:11:28.160736","ARG_OF_PERICENTER":"82.0784","SEMIMAJOR_AXIS":"6925.340","TLE_LINE2":"2 47778  53.0275 131.1200 0002042  82.0784 278.0436 15.06402921 38070","SITE":"AFETR","PERIAPSIS":"545.790","GP_ID":"188910125","OBJECT_TYPE":"PAYLOAD","FILE":"3201411","OBJECT_ID":"2021-017BJ","DECAY_DATE":null,"MEAN_ELEMENT_THEORY":"SGP4","ECCENTRICITY":"0.00020420","REF_FRAME":"TEME","TIME_SYSTEM":"UTC","CLASSIFICATION_TYPE":"U","RA_OF_ASC_NODE":"131.1200","BSTAR":"0.00024925000000","EPHEMERIS_TYPE":"0","CENTER_NAME":"EARTH","REV_AT_EPOCH":"3807","TLE_LINE1":"1 47778U 21017BJ  21308.79963149  .00003433  00000-0  24925-3 0  9994"},{"OBJECT_ID":"2021-017BK","ECCENTRICITY":"0.00016730","DECAY_DATE":null,"MEAN_ELEMENT_THEORY":"SGP4","OBJECT_TYPE":"PAYLOAD","GP_ID":"188954948","FILE":"3202404","EPHEMERIS_TYPE":"0","REV_AT_EPOCH":"3871","CENTER_NAME":"EARTH","TLE_LINE1":"1 47779U 21017BK  21308.74801116  .00001098  00000-0  92566-4 0  9997","REF_FRAME":"TEME","TIME_SYSTEM":"UTC","CLASSIFICATION_TYPE":"U","BSTAR":"0.00009256600000","RA_OF_ASC_NODE":"131.1791","COUNTRY_CODE":"US","MEAN_MOTION_DOT":"0.00001098","NORAD_CAT_ID":"47779","MEAN_ANOMALY":"279.8369","INCLINATION":"53.0544","PERIOD":"95.592","RCS_SIZE":"LARGE","MEAN_MOTION_DDOT":"0.0000000000000","ELEMENT_SET_NO":"999","OBJECT_NAME":"STARLINK-2212","TLE_LINE2":"2 47779  53.0544 131.1791 0001673  80.2809 279.8369 15.06405254 38719","SEMIMAJOR_AXIS":"6925.332","EPOCH":"2021-11-04T17:57:08.164224","ARG_OF_PERICENTER":"80.2809","PERIAPSIS":"546.039","SITE":"AFETR","LAUNCH_DATE":"2021-03-04","MEAN_MOTION":"15.06405254","APOAPSIS":"548.356"},{"INCLINATION":"53.0550","PERIOD":"95.591","COUNTRY_CODE":"US","NORAD_CAT_ID":"47780","MEAN_ANOMALY":"274.3998","MEAN_MOTION_DOT":"-0.00003830","MEAN_MOTION":"15.06414412","LAUNCH_DATE":"2021-03-04","APOAPSIS":"548.380","SEMIMAJOR_AXIS":"6925.304","TLE_LINE2":"2 47780  53.0550 130.5792 0001748  85.7191 274.3998 15.06414412 38768","EPOCH":"2021-11-04T21:12:09.566784","ARG_OF_PERICENTER":"85.7191","RCS_SIZE":"LARGE","MEAN_MOTION_DDOT":"0.0000000000000","ELEMENT_SET_NO":"999","OBJECT_NAME":"STARLINK-2213","PERIAPSIS":"545.959","SITE":"AFETR","OBJECT_TYPE":"PAYLOAD","GP_ID":"188953696","FILE":"3202404","ECCENTRICITY":"0.00017480","DECAY_DATE":null,"MEAN_ELEMENT_THEORY":"SGP4","OBJECT_ID":"2021-017BL","REF_FRAME":"TEME","TIME_SYSTEM":"UTC","BSTAR":"-0.00023823000000","RA_OF_ASC_NODE":"130.5792","CLASSIFICATION_TYPE":"U","REV_AT_EPOCH":"3876","CENTER_NAME":"EARTH","EPHEMERIS_TYPE":"0","TLE_LINE1":"1 47780U 21017BL  21308.88344406 -.00003830  00000-0 -23823-3 0  9995"},{"EPOCH":"2021-11-04T20:36:22.729824","ARG_OF_PERICENTER":"84.0888","SEMIMAJOR_AXIS":"6925.364","TLE_LINE2":"2 47781  53.0541 130.6927 0001702  84.0888 276.0295 15.06394843 38714","MEAN_MOTION_DDOT":"0.0000000000000","ELEMENT_SET_NO":"999","OBJECT_NAME":"STARLINK-2223","RCS_SIZE":"LARGE","SITE":"AFETR","PERIAPSIS":"546.051","MEAN_MOTION":"15.06394843","LAUNCH_DATE":"2021-03-04","APOAPSIS":"548.408","COUNTRY_CODE":"US","MEAN_ANOMALY":"276.0295","NORAD_CAT_ID":"47781","MEAN_MOTION_DOT":"0.00000085","INCLINATION":"53.0541","PERIOD":"95.592","CENTER_NAME":"EARTH","REV_AT_EPOCH":"3871","EPHEMERIS_TYPE":"0","TLE_LINE1":"1 47781U 21017BM  21308.85859641  .00000085  00000-0  24625-4 0  9994","TIME_SYSTEM":"UTC","REF_FRAME":"TEME","RA_OF_ASC_NODE":"130.6927","BSTAR":"0.00002462500000","CLASSIFICATION_TYPE":"U","MEAN_ELEMENT_THEORY":"SGP4","DECAY_DATE":null,"ECCENTRICITY":"0.00017020","OBJECT_ID":"2021-017BM","GP_ID":"188953946","OBJECT_TYPE":"PAYLOAD","FILE":"3202404"},{"INCLINATION":"53.0553","PERIOD":"95.593","COUNTRY_CODE":"US","MEAN_MOTION_DOT":"0.00002570","MEAN_ANOMALY":"288.6419","NORAD_CAT_ID":"47787","LAUNCH_DATE":"2021-03-11","MEAN_MOTION":"15.06390388","APOAPSIS":"548.460","MEAN_MOTION_DDOT":"0.0000000000000","ELEMENT_SET_NO":"999","OBJECT_NAME":"STARLINK-2257","RCS_SIZE":"LARGE","EPOCH":"2021-11-04T21:02:55.528512","ARG_OF_PERICENTER":"71.4760","SEMIMAJOR_AXIS":"6925.378","TLE_LINE2":"2 47787  53.0553 170.6160 0001757  71.4760 288.6419 15.06390388 37575","SITE":"AFETR","PERIAPSIS":"546.026","GP_ID":"188954697","OBJECT_TYPE":"PAYLOAD","FILE":"3202404","OBJECT_ID":"2021-018A","DECAY_DATE":null,"MEAN_ELEMENT_THEORY":"SGP4","ECCENTRICITY":"0.00017570","TIME_SYSTEM":"UTC","REF_FRAME":"TEME","CLASSIFICATION_TYPE":"U","RA_OF_ASC_NODE":"170.6160","BSTAR":"0.00019144000000","EPHEMERIS_TYPE":"0","CENTER_NAME":"EARTH","REV_AT_EPOCH":"3757","TLE_LINE1":"1 47787U 21018A   21308.87703158  .00002570  00000-0  19144-3 0  9994"},{"EPOCH":"2021-11-04T16:39:26.224128","ARG_OF_PERICENTER":"72.9872","SEMIMAJOR_AXIS":"6932.849","TLE_LINE2":"2 47788  53.0584 145.6571 0001828  72.9872 287.1316 15.03956043 37929","ELEMENT_SET_NO":"999","MEAN_MOTION_DDOT":"0.0000000000000","OBJECT_NAME":"STARLINK-2314","RCS_SIZE":"MEDIUM","SITE":"AFETR","PERIAPSIS":"553.447","MEAN_MOTION":"15.03956043","LAUNCH_DATE":"2021-03-11","APOAPSIS":"555.981","COUNTRY_CODE":"US","MEAN_ANOMALY":"287.1316","NORAD_CAT_ID":"47788","MEAN_MOTION_DOT":"0.00000270","INCLINATION":"53.0584","PERIOD":"95.747","CENTER_NAME":"EARTH","REV_AT_EPOCH":"3792","EPHEMERIS_TYPE":"0","TLE_LINE1":"1 47788U 21018B   21308.69405352  .00000270  00000-0  39072-4 0  9998","TIME_SYSTEM":"UTC","REF_FRAME":"TEME","RA_OF_ASC_NODE":"145.6571","BSTAR":"0.00003907200000","CLASSIFICATION_TYPE":"U","DECAY_DATE":null,"MEAN_ELEMENT_THEORY":"SGP4","ECCENTRICITY":"0.00018280","OBJECT_ID":"2021-018B","GP_ID":"188955442","OBJECT_TYPE":"PAYLOAD","FILE":"3202404"},{"MEAN_ANOMALY":"277.6466","NORAD_CAT_ID":"47789","MEAN_MOTION_DOT":"-0.00000146","COUNTRY_CODE":"US","PERIOD":"95.593","INCLINATION":"53.0568","SITE":"AFETR","PERIAPSIS":"546.109","ARG_OF_PERICENTER":"82.4712","EPOCH":"2021-11-04T20:54:57.314880","TLE_LINE2":"2 47789  53.0568 150.6286 0001666  82.4712 277.6466 15.06384095 37510","SEMIMAJOR_AXIS":"6925.397","MEAN_MOTION_DDOT":"0.0000000000000","OBJECT_NAME":"STARLINK-2315","ELEMENT_SET_NO":"999","RCS_SIZE":"LARGE","APOAPSIS":"548.416","MEAN_MOTION":"15.06384095","LAUNCH_DATE":"2021-03-11","DECAY_DATE":null,"MEAN_ELEMENT_THEORY":"SGP4","ECCENTRICITY":"0.00016660","OBJECT_ID":"2021-018C","FILE":"3201779","GP_ID":"188919683","OBJECT_TYPE":"PAYLOAD","TLE_LINE1":"1 47789U 21018C   21308.87149670 -.00000146  00000-0  90769-5 0  9991","REV_AT_EPOCH":"3751","CENTER_NAME":"EARTH","EPHEMERIS_TYPE":"0","RA_OF_ASC_NODE":"150.6286","BSTAR":"0.00000907690000","CLASSIFICATION_TYPE":"U","REF_FRAME":"TEME","TIME_SYSTEM":"UTC"},{"COUNTRY_CODE":"US","MEAN_ANOMALY":"300.7552","NORAD_CAT_ID":"47790","MEAN_MOTION_DOT":"0.00000638","INCLINATION":"53.0531","PERIOD":"95.592","EPOCH":"2021-11-04T20:19:06.879360","ARG_OF_PERICENTER":"59.3657","TLE_LINE2":"2 47790  53.0531 140.7462 0002227  59.3657 300.7552 15.06399369 37652","SEMIMAJOR_AXIS":"6925.350","MEAN_MOTION_DDOT":"0.0000000000000","ELEMENT_SET_NO":"999","OBJECT_NAME":"STARLINK-2319","RCS_SIZE":"LARGE","SITE":"AFETR","PERIAPSIS":"545.673","MEAN_MOTION":"15.06399369","LAUNCH_DATE":"2021-03-11","APOAPSIS":"548.758","DECAY_DATE":null,"MEAN_ELEMENT_THEORY":"SGP4","ECCENTRICITY":"0.00022270","OBJECT_ID":"2021-018D","GP_ID":"188906535","OBJECT_TYPE":"PAYLOAD","FILE":"3201250","CENTER_NAME":"EARTH","REV_AT_EPOCH":"3765","EPHEMERIS_TYPE":"0","TLE_LINE1":"1 47790U 21018D   21308.84660740  .00000638  00000-0  61753-4 0  9991","REF_FRAME":"TEME","TIME_SYSTEM":"UTC","RA_OF_ASC_NODE":"140.7462","BSTAR":"0.00006175300000","CLASSIFICATION_TYPE":"U"},{"FILE":"3202404","GP_ID":"188955191","OBJECT_TYPE":"PAYLOAD","OBJECT_ID":"2021-018E","DECAY_DATE":null,"MEAN_ELEMENT_THEORY":"SGP4","ECCENTRICITY":"0.00014450","CLASSIFICATION_TYPE":"U","RA_OF_ASC_NODE":"170.6573","BSTAR":"-0.00001635800000","REF_FRAME":"TEME","TIME_SYSTEM":"UTC","TLE_LINE1":"1 47791U 21018E   21308.86596169 -.00000525  00000-0 -16358-4 0  9995","EPHEMERIS_TYPE":"0","REV_AT_EPOCH":"3758","CENTER_NAME":"EARTH","PERIOD":"95.592","INCLINATION":"53.0563","MEAN_MOTION_DOT":"-0.00000525","MEAN_ANOMALY":"286.6996","NORAD_CAT_ID":"47791","COUNTRY_CODE":"US","APOAPSIS":"548.231","LAUNCH_DATE":"2021-03-11","MEAN_MOTION":"15.06394449","SITE":"AFETR","PERIAPSIS":"546.230","MEAN_MOTION_DDOT":"0.0000000000000","ELEMENT_SET_NO":"999","OBJECT_NAME":"STARLINK-2322","RCS_SIZE":"LARGE","EPOCH":"2021-11-04T20:46:59.090016","ARG_OF_PERICENTER":"73.4151","SEMIMAJOR_AXIS":"6925.366","TLE_LINE2":"2 47791  53.0563 170.6573 0001445  73.4151 286.6996 15.06394449 37580"},{"TIME_SYSTEM":"UTC","REF_FRAME":"TEME","BSTAR":"0.00003488200000","RA_OF_ASC_NODE":"150.6008","CLASSIFICATION_TYPE":"U","CENTER_NAME":"EARTH","REV_AT_EPOCH":"3786","EPHEMERIS_TYPE":"0","TLE_LINE1":"1 47792U 21018F   21308.87887173  .00000238  00000-0  34882-4 0  9996","OBJECT_TYPE":"PAYLOAD","GP_ID":"188954949","FILE":"3202404","ECCENTRICITY":"0.00016200","DECAY_DATE":null,"MEAN_ELEMENT_THEORY":"SGP4","OBJECT_ID":"2021-018F","MEAN_MOTION":"15.06389446","LAUNCH_DATE":"2021-03-11","APOAPSIS":"548.368","TLE_LINE2":"2 47792  53.0558 150.6008 0001620  80.7638 279.3534 15.06389446 37861","SEMIMAJOR_AXIS":"6925.381","ARG_OF_PERICENTER":"80.7638","EPOCH":"2021-11-04T21:05:34.517472","RCS_SIZE":"LARGE","ELEMENT_SET_NO":"999","MEAN_MOTION_DDOT":"0.0000000000000","OBJECT_NAME":"STARLINK-2334","PERIAPSIS":"546.124","SITE":"AFETR","INCLINATION":"53.0558","PERIOD":"95.593","COUNTRY_CODE":"US","NORAD_CAT_ID":"47792","MEAN_ANOMALY":"279.3534","MEAN_MOTION_DOT":"0.00000238"}];
